{"type": "FeatureCollection", "features": [ {"type": "Feature", "properties": {"norad_id": 30435, "name": "FENGYUN 1C DEB", "group": "fengyun-1c-debris", "lat": -73.5923680161076, "lon": 133.279278430969, "alt_km": 1125.7818726211817, "timestamp": "2025-12-26T06:43:29.788021+00:00", "meta": {"OBJECT_NAME": "FENGYUN 1C DEB", "OBJECT_ID": "1999-025AEW", "EPOCH": "2025-12-25T22:39:52.579584", "MEAN_MOTION": 13.79667399, "ECCENTRICITY": 0.02089331, "INCLINATION": 99.0179, "RA_OF_ASC_NODE": 345.595, "ARG_OF_PERICENTER": 76.5004, "MEAN_ANOMALY": 312.5434, "EPHEMERIS_TYPE": 0, "CLASSIFICATION_TYPE": "U", "NORAD_CAT_ID": 30435, "ELEMENT_SET_NO": 999, "REV_AT_EPOCH": 94342, "BSTAR": 0.0015375515, "MEAN_MOTION_DOT": 1.83e-05, "MEAN_MOTION_DDOT": 0}, "tle": {"line1": "1 30435U 99025AEW 25359.94435856  .00001830  00000+0  15376-2 0  9993", "line2": "2 30435  99.0179 345.5950 0208933  76.5004 312.5434 13.79667399943424"}}, "geometry": {"type": "Point", "coordinates": [133.279278430969, -73.5923680161076]}}, {"type": "Feature", "properties": {"norad_id": 30436, "name": "FENGYUN 1C DEB", "group": "fengyun-1c-debris", "lat": -45.06801355007869, "lon": 65.14459789518813, "alt_km": 870.5850434178419, "timestamp": "2025-12-26T06:43:29.788031+00:00", "meta": {"OBJECT_NAME": "FENGYUN 1C DEB", "OBJECT_ID": "1999-025AEX", "EPOCH": "2025-12-25T16:25:30.877824", "MEAN_MOTION": 14.22401797, "ECCENTRICITY": 0.00983857, "INCLINATION": 98.4265, "RA_OF_ASC_NODE": 253.1199, "ARG_OF_PERICENTER": 95.6903, "MEAN_ANOMALY": 319.8182, "EPHEMERIS_TYPE": 0, "CLASSIFICATION_TYPE": "U", "NORAD_CAT_ID": 30436, "ELEMENT_SET_NO": 999, "REV_AT_EPOCH": 96621, "BSTAR": 0.0020969484, "MEAN_MOTION_DOT": 4.868e-05, "MEAN_MOTION_DDOT": 0}, "tle": {"line1": "1 30436U 99025AEX 25359.68438516  .00004868  00000+0  20969-2 0  9999", "line2": "2 30436  98.4265 253.1199 0098385  95.6903 319.8182 14.22401797966210"}}, "geometry": {"type": "Point", "coordinates": [65.14459789518813, -45.06801355007869]}}, {"type": "Feature", "properties": {"norad_id": 30437, "name": "FENGYUN 1C DEB", "group": "fengyun-1c-debris", "lat": -75.79465487718674, "lon": 60.083296780348206, "alt_km": 628.2137967871549, "timestamp": "2025-12-26T06:43:29.788041+00:00", "meta": {"OBJECT_NAME": "FENGYUN 1C DEB", "OBJECT_ID": "1999-025AEY", "EPOCH": "2025-12-25T07:27:16.068960", "MEAN_MOTION": 14.8853895, "ECCENTRICITY": 0.0035321, "INCLINATION": 98.9209, "RA_OF_ASC_NODE": 20.6389, "ARG_OF_PERICENTER": 63.1528, "MEAN_ANOMALY": 65.4069, "EPHEMERIS_TYPE": 0, "CLASSIFICATION_TYPE": "U", "NORAD_CAT_ID": 30437, "ELEMENT_SET_NO": 999, "REV_AT_EPOCH": 99374, "BSTAR": 0.0023199, "MEAN_MOTION_DOT": 0.0002182, "MEAN_MOTION_DDOT": 0}, "tle": {"line1": "1 30437U 99025AEY 25359.31060265  .00021820  00000+0  23199-2 0  9997", "line2": "2 30437  98.9209  20.6389 0035321  63.1528  65.4069 14.88538950993746"}}, "geometry": {"type": "Point", "coordinates": [60.083296780348206, -75.79465487718674]}}, {"type": "Feature", "properties": {"norad_id": 30438, "name": "FENGYUN 1C DEB", "group": "fengyun-1c-debris", "lat": 81.21958707116674, "lon": -69.07256072830678, "alt_km": 864.0179893507193, "timestamp": "2025-12-26T06:43:29.788051+00:00", "meta": {"OBJECT_NAME": "FENGYUN 1C DEB", "OBJECT_ID": "1999-025AEZ", "EPOCH": "2025-12-25T00:58:15.685248", "MEAN_MOTION": 13.92140653, "ECCENTRICITY": 0.01348772, "INCLINATION": 98.7499, "RA_OF_ASC_NODE": 15.3837, "ARG_OF_PERICENTER": 153.1315, "MEAN_ANOMALY": 207.6915, "EPHEMERIS_TYPE": 0, "CLASSIFICATION_TYPE": "U", "NORAD_CAT_ID": 30438, "ELEMENT_SET_NO": 999, "REV_AT_EPOCH": 95477, "BSTAR": 0.001231799, "MEAN_MOTION_DOT": 1.658e-05, "MEAN_MOTION_DDOT": 0}, "tle": {"line1": "1 30438U 99025AEZ 25359.04045932  .00001658  00000+0  12318-2 0  9990", "line2": "2 30438  98.7499  15.3837 0134877 153.1315 207.6915 13.92140653954778"}}, "geometry": {"type": "Point", "coordinates": [-69.07256072830678, 81.21958707116674]}}, {"type": "Feature", "properties": {"norad_id": 30439, "name": "FENGYUN 1C DEB", "group": "fengyun-1c-debris", "lat": 65.14597155480813, "lon": -148.9831639819214, "alt_km": 884.5296390680987, "timestamp": "2025-12-26T06:43:29.788061+00:00", "meta": {"OBJECT_NAME": "FENGYUN 1C DEB", "OBJECT_ID": "1999-025AFA", "EPOCH": "2025-12-24T23:50:12.384096", "MEAN_MOTION": 14.08860456, "ECCENTRICITY": 0.00383093, "INCLINATION": 98.7498, "RA_OF_ASC_NODE": 10.3483, "ARG_OF_PERICENTER": 301.6103, "MEAN_ANOMALY": 127.7277, "EPHEMERIS_TYPE": 0, "CLASSIFICATION_TYPE": "U", "NORAD_CAT_ID": 30439, "ELEMENT_SET_NO": 999, "REV_AT_EPOCH": 96964, "BSTAR": 0.00048908313, "MEAN_MOTION_DOT": 8.07e-06, "MEAN_MOTION_DDOT": 0}, "tle": {"line1": "1 30439U 99025AFA 25358.99319889  .00000807  00000+0  48908-3 0  9999", "line2": "2 30439  98.7498  10.3483 0038309 301.6103 127.7277 14.08860456969641"}}, "geometry": {"type": "Point", "coordinates": [-148.9831639819214, 65.14597155480813]}}, {"type": "Feature", "properties": {"norad_id": 30441, "name": "FENGYUN 1C DEB", "group": "fengyun-1c-debris", "lat": 44.34287281929444, "lon": 80.08825794769504, "alt_km": 1103.5393750995663, "timestamp": "2025-12-26T06:43:29.788071+00:00", "meta": {"OBJECT_NAME": "FENGYUN 1C DEB", "OBJECT_ID": "1999-025AFC", "EPOCH": "2025-12-25T16:33:19.723968", "MEAN_MOTION": 13.77695423, "ECCENTRICITY": 0.01844036, "INCLINATION": 99.1339, "RA_OF_ASC_NODE": 88.5665, "ARG_OF_PERICENTER": 223.3147, "MEAN_ANOMALY": 135.3384, "EPHEMERIS_TYPE": 0, "CLASSIFICATION_TYPE": "U", "NORAD_CAT_ID": 30441, "ELEMENT_SET_NO": 999, "REV_AT_EPOCH": 95048, "BSTAR": 0.0006075713, "MEAN_MOTION_DOT": 6.45e-06, "MEAN_MOTION_DDOT": 0}, "tle": {"line1": "1 30441U 99025AFC 25359.68981162  .00000645  00000+0  60757-3 0  9994", "line2": "2 30441  99.1339  88.5665 0184403 223.3147 135.3384 13.77695423950488"}}, "geometry": {"type": "Point", "coordinates": [80.08825794769504, 44.34287281929444]}}, {"type": "Feature", "properties": {"norad_id": 30442, "name": "FENGYUN 1C DEB", "group": "fengyun-1c-debris", "lat": 55.13016723758901, "lon": 81.15176674408985, "alt_km": 829.9417628064975, "timestamp": "2025-12-26T06:43:29.788081+00:00", "meta": {"OBJECT_NAME": "FENGYUN 1C DEB", "OBJECT_ID": "1999-025AFD", "EPOCH": "2025-12-25T05:14:58.625376", "MEAN_MOTION": 14.28734189, "ECCENTRICITY": 0.0055982, "INCLINATION": 98.8659, "RA_OF_ASC_NODE": 93.0171, "ARG_OF_PERICENTER": 251.1621, "MEAN_ANOMALY": 108.3484, "EPHEMERIS_TYPE": 0, "CLASSIFICATION_TYPE": "U", "NORAD_CAT_ID": 30442, "ELEMENT_SET_NO": 999, "REV_AT_EPOCH": 97340, "BSTAR": 0.0022286, "MEAN_MOTION_DOT": 5.661e-05, "MEAN_MOTION_DDOT": 0}, "tle": {"line1": "1 30442U 99025AFD 25359.21873409  .00005661  00000+0  22286-2 0  9995", "line2": "2 30442  98.8659  93.0171 0055982 251.1621 108.3484 14.28734189973406"}}, "geometry": {"type": "Point", "coordinates": [81.15176674408985, 55.13016723758901]}}, {"type": "Feature", "properties": {"norad_id": 30443, "name": "FENGYUN 1C DEB", "group": "fengyun-1c-debris", "lat": -77.11785301866071, "lon": 84.83295841518648, "alt_km": 761.1797893865614, "timestamp": "2025-12-26T06:43:29.788091+00:00", "meta": {"OBJECT_NAME": "FENGYUN 1C DEB", "OBJECT_ID": "1999-025AFE", "EPOCH": "2025-12-25T19:29:12.989760", "MEAN_MOTION": 14.36966617, "ECCENTRICITY": 0.00265438, "INCLINATION": 98.8498, "RA_OF_ASC_NODE": 307.2915, "ARG_OF_PERICENTER": 301.5556, "MEAN_ANOMALY": 58.3038, "EPHEMERIS_TYPE": 0, "CLASSIFICATION_TYPE": "U", "NORAD_CAT_ID": 30443, "ELEMENT_SET_NO": 999, "REV_AT_EPOCH": 97621, "BSTAR": 0.0024847466, "MEAN_MOTION_DOT": 7.351e-05, "MEAN_MOTION_DDOT": 0}, "tle": {"line1": "1 30443U 99025AFE 25359.81195590  .00007351  00000+0  24847-2 0  9993", "line2": "2 30443  98.8498 307.2915 0026543 301.5556  58.3038 14.36966617976215"}}, "geometry": {"type": "Point", "coordinates": [84.83295841518648, -77.11785301866071]}}, {"type": "Feature", "properties": {"norad_id": 30445, "name": "FENGYUN 1C DEB", "group": "fengyun-1c-debris", "lat": 74.26778312027842, "lon": 165.78612490147952, "alt_km": 765.0178400789791, "timestamp": "2025-12-26T06:43:29.788100+00:00", "meta": {"OBJECT_NAME": "FENGYUN 1C DEB", "OBJECT_ID": "1999-025AFG", "EPOCH": "2025-12-25T20:18:31.781088", "MEAN_MOTION": 14.48823409, "ECCENTRICITY": 0.01050753, "INCLINATION": 98.8372, "RA_OF_ASC_NODE": 311.8082, "ARG_OF_PERICENTER": 339.0324, "MEAN_ANOMALY": 20.6574, "EPHEMERIS_TYPE": 0, "CLASSIFICATION_TYPE": "U", "NORAD_CAT_ID": 30445, "ELEMENT_SET_NO": 999, "REV_AT_EPOCH": 99374, "BSTAR": 0.00085882588, "MEAN_MOTION_DOT": 3.427e-05, "MEAN_MOTION_DDOT": 0}, "tle": {"line1": "1 30445U 99025AFG 25359.84620117  .00003427  00000+0  85883-3 0  9994", "line2": "2 30445  98.8372 311.8082 0105075 339.0324  20.6574 14.48823409993749"}}, "geometry": {"type": "Point", "coordinates": [165.78612490147952, 74.26778312027842]}}, {"type": "Feature", "properties": {"norad_id": 30446, "name": "FENGYUN 1C DEB", "group": "fengyun-1c-debris", "lat": 46.41093407388647, "lon": 73.80483269221278, "alt_km": 714.6310220239684, "timestamp": "2025-12-26T06:43:29.788110+00:00", "meta": {"OBJECT_NAME": "FENGYUN 1C DEB", "OBJECT_ID": "1999-025AFH", "EPOCH": "2025-12-25T22:11:55.798368", "MEAN_MOTION": 14.44867317, "ECCENTRICITY": 0.00338918, "INCLINATION": 98.6125, "RA_OF_ASC_NODE": 82.606, "ARG_OF_PERICENTER": 58.7942, "MEAN_ANOMALY": 301.6563, "EPHEMERIS_TYPE": 0, "CLASSIFICATION_TYPE": "U", "NORAD_CAT_ID": 30446, "ELEMENT_SET_NO": 999, "REV_AT_EPOCH": 98367, "BSTAR": 0.0015995363, "MEAN_MOTION_DOT": 5.563e-05, "MEAN_MOTION_DDOT": 0}, "tle": {"line1": "1 30446U 99025AFH 25359.92495137  .00005563  00000+0  15995-2 0  9995", "line2": "2 30446  98.6125  82.6060 0033891  58.7942 301.6563 14.44867317983673"}}, "geometry": {"type": "Point", "coordinates": [73.80483269221278, 46.41093407388647]}}]}